[{"OBJECT_NAME":"DAMPE","OBJECT_ID":"2015-078A","EPOCH":"2026-03-09T23:55:00.527232","MEAN_MOTION":15.30502084,"ECCENTRICITY":0.00138005,"INCLINATION":97.4588,"RA_OF_ASC_NODE":73.9866,"ARG_OF_PERICENTER":70.6942,"MEAN_ANOMALY":289.579,"EPHEMERIS_TYPE":0,"CLASSIFICATION_TYPE":"U","NORAD_CAT_ID":41173,"ELEMENT_SET_NO":999,"REV_AT_EPOCH":56937,"BSTAR":9.1158173e-5,"MEAN_MOTION_DOT":2.617e-5,"MEAN_MOTION_DDOT":0},{"OBJECT_NAME":"STARLINK-34554","OBJECT_ID":"2025-139Z","EPOCH":"2026-03-09T13:02:26.219328","MEAN_MOTION":15.30189966,"ECCENTRICITY":0.00011852,"INCLINATION":53.1599,"RA_OF_ASC_NODE":127.5782,"ARG_OF_PERICENTER":80.7338,"MEAN_ANOMALY":279.3796,"EPHEMERIS_TYPE":0,"CLASSIFICATION_TYPE":"U","NORAD_CAT_ID":64687,"ELEMENT_SET_NO":999,"REV_AT_EPOCH":4026,"BSTAR":0.0006940519,"MEAN_MOTION_DOT":0.00020246,"MEAN_MOTION_DDOT":0}]
